H1 CPF 01  gfz 2022 11 05 01  8091 tandemx   
H2 1003001  6202 36605    2022 11 05 00 59 42 2022 11 10 00 00 42   120 1 1  0 0 0
H9
10 0 59890  46062.000000  0   -1579535.852  -6373528.048  -2093971.351
10 0 59890  46182.000000  0   -1672666.435  -6008526.704  -2934642.265
10 0 59890  46302.000000  0   -1729331.576  -5537503.246  -3723807.951
10 0 59890  46422.000000  0   -1746798.311  -4969429.666  -4447685.859
10 0 59890  46542.000000  0   -1723190.581  -4314991.742  -5093668.813
10 0 59890  46662.000000  0   -1657546.187  -3586377.562  -5650537.937
10 0 59890  46782.000000  0   -1549853.892  -2797042.605  -6108648.748
10 0 59890  46902.000000  0   -1401069.989  -1961455.602  -6460087.975
10 0 59890  47022.000000  0   -1213114.488  -1094831.023  -6698798.348
10 0 59890  47142.000000  0    -988847.874   -212854.032  -6820672.230
10 0 59890  47262.000000  0    -732028.231    668598.616  -6823614.173
10 0 59890  47382.000000  0    -447248.739   1533736.993  -6707572.484
10 0 59890  47502.000000  0    -139858.051   2367133.274  -6474539.904
10 0 59890  47622.000000  0     184136.215   3153990.498  -6128524.701
10 0 59890  47742.000000  0     518181.449   3880402.840  -5675490.080
10 0 59890  47862.000000  0     855307.923   4533600.637  -5123260.627
10 0 59890  47982.000000  0    1188268.683   5102178.081  -4481399.261
10 0 59890  48102.000000  0    1509690.226   5576300.170  -3761052.510
10 0 59890  48222.000000  0    1812230.495   5947882.285  -2974765.605
10 0 59890  48342.000000  0    2088740.736   6210739.611  -2136270.629
10 0 59890  48462.000000  0    2332428.052   6360702.628  -1260249.207
10 0 59890  48582.000000  0    2537014.310   6395693.745   -362073.254
10 0 59890  48702.000000  0    2696887.095   6315762.021    542470.116
10 0 59890  48822.000000  0    2807238.694   6123075.219   1437463.024
10 0 59890  48942.000000  0    2864189.484   5821869.832   2307144.981
10 0 59890  49062.000000  0    2864892.853   5418359.702   3136198.656
10 0 59890  49182.000000  0    2807619.143   4920605.189   3910027.194
10 0 59890  49302.000000  0    2691816.257   4338347.152   4615017.370
10 0 59890  49422.000000  0    2518143.143   3682806.878   5238783.571
10 0 59890  49542.000000  0    2288477.420   2966460.056   5770382.450
10 0 59890  49662.000000  0    2005900.106   2202793.250   6200500.240
10 0 59890  49782.000000  0    1674654.853   1406044.838   6521612.034
10 0 59890  49902.000000  0    1300082.491    590934.819   6728107.132
10 0 59890  50022.000000  0     888533.458   -227607.864   6816379.927
10 0 59890  50142.000000  0     447259.808  -1034717.476   6784890.181
10 0 59890  50262.000000  0     -15712.888  -1815861.964   6634188.926
10 0 59890  50382.000000  0    -491731.716  -2557104.506   6366909.013
10 0 59890  50502.000000  0    -971677.608  -3245352.985   5987720.740
10 0 59890  50622.000000  0   -1446137.313  -3868591.682   5503253.480
10 0 59890  50742.000000  0   -1905586.049  -4416093.754   4921987.534
10 0 59890  50862.000000  0   -2340579.311  -4878612.504   4254113.645
10 0 59890  50982.000000  0   -2741948.822  -5248546.408   3511359.150
10 0 59890  51102.000000  0   -3100996.540  -5520071.991   2706782.518
10 0 59890  51222.000000  0   -3409682.289  -5689241.170   1854542.523
10 0 59890  51342.000000  0   -3660801.731  -5754042.645    969645.771
10 0 59890  51462.000000  0   -3848150.165  -5714424.640     67676.360
10 0 59890  51582.000000  0   -3966667.741  -5572278.295   -835486.356
10 0 59890  51702.000000  0   -4012562.157  -5331381.609  -1723956.721
10 0 59890  51822.000000  0   -3983405.299  -4997304.480  -2582131.077
10 0 59890  51942.000000  0   -3878201.534  -4577278.115  -3394968.396
10 0 59890  52062.000000  0   -3697425.962  -4080033.140  -4148256.858
10 0 59890  52182.000000  0   -3443032.869  -3515611.772  -4828861.136
10 0 59890  52302.000000  0   -3118434.965  -2895158.738  -5424946.971
10 0 59890  52422.000000  0   -2728454.254  -2230695.808  -5926178.844
10 0 59890  52542.000000  0   -2279246.477  -1534885.985  -6323889.265
10 0 59890  52662.000000  0   -1778199.829   -820791.055  -6611217.962
10 0 59890  52782.000000  0   -1233810.956   -101627.853  -6783218.104
10 0 59890  52902.000000  0    -655541.974    609471.484  -6836930.994
10 0 59890  53022.000000  0     -53659.018   1299692.986  -6771431.728
10 0 59890  53142.000000  0     560945.003   1956765.492  -6587843.099
10 0 59890  53262.000000  0    1176942.114   2569173.801  -6289320.856
10 0 59890  53382.000000  0    1782774.286   3126358.030  -5881005.506
10 0 59890  53502.000000  0    2366865.970   3618895.409  -5369942.412
10 0 59890  53622.000000  0    2917842.552   4038660.988  -4764971.156
10 0 59890  53742.000000  0    3424750.987   4378966.828  -4076584.559
10 0 59890  53862.000000  0    3877278.984   4634675.718  -3316756.859
10 0 59890  53982.000000  0    4265968.260   4802286.044  -2498742.759
10 0 59890  54102.000000  0    4582415.427   4879984.665  -1636849.582
10 0 59890  54222.000000  0    4819456.851   4867668.094   -746188.095
10 0 59890  54342.000000  0    4971332.502   4766928.446    157596.803
10 0 59890  54462.000000  0    5033821.391   4581004.554   1058607.110
10 0 59890  54582.000000  0    5004348.310   4314701.252   1940978.174
10 0 59890  54702.000000  0    4882059.456   3974276.805   2789167.169
10 0 59890  54822.000000  0    4667861.353   3567299.830   3588236.417
10 0 59890  54942.000000  0    4364422.775   3102481.192   4324122.921
10 0 59890  55062.000000  0    3976141.839   2589485.511   4983888.742
10 0 59890  55182.000000  0    3509078.777   2038727.324   5555950.316
10 0 59890  55302.000000  0    2970853.401   1461156.148   6030279.161
10 0 59890  55422.000000  0    2370515.121    868035.677   6398572.239
10 0 59890  55542.000000  0    1718386.142    270722.574   6654389.978
10 0 59890  55662.000000  0    1025881.257   -319549.631   6793263.632
10 0 59890  55782.000000  0     305305.997   -891881.625   6812770.128
10 0 59890  55902.000000  0    -430362.879  -1435909.617   6712570.914
10 0 59890  56022.000000  0   -1167711.011  -1941992.747   6494416.827
10 0 59890  56142.000000  0   -1893129.965  -2401383.857   6162117.726
10 0 59890  56262.000000  0   -2593065.900  -2806380.357   5721480.512
10 0 59890  56382.000000  0   -3254273.757  -3150456.274   5180216.331
10 0 59890  56502.000000  0   -3864073.094  -3428371.299   4547811.250
10 0 59890  56622.000000  0   -4410595.647  -3636253.071   3835363.422
10 0 59890  56742.000000  0   -4883021.253  -3771652.255   3055391.444
10 0 59890  56862.000000  0   -5271797.980  -3833569.488   2221616.217
10 0 59890  56982.000000  0   -5568841.862  -3822453.616   1348717.351
10 0 59890  57102.000000  0   -5767708.948  -3740169.059    452068.878
10 0 59890  57222.000000  0   -5863736.127  -3589933.729   -452538.840
10 0 59890  57342.000000  0   -5854147.041  -3376229.507  -1349186.234
10 0 59890  57462.000000  0   -5738118.984  -3104686.275  -2222114.855
10 0 59890  57582.000000  0   -5516808.933  -2781943.154  -3056011.326
10 0 59890  57702.000000  0   -5193340.665  -2415492.009  -3836280.077
10 0 59890  57822.000000  0   -4772752.997  -2013506.509  -4549299.392
10 0 59890  57942.000000  0   -4261911.663  -1584661.883  -5182656.323
10 0 59890  58062.000000  0   -3669386.943  -1137949.168  -5725356.859
10 0 59890  58182.000000  0   -3005300.516   -682488.119  -6168007.145
10 0 59890  58302.000000  0   -2281146.142   -227343.487  -6502964.687
10 0 59890  58422.000000  0   -1509587.009    218651.684  -6724458.722
10 0 59890  58542.000000  0    -704234.489    647062.365  -6828678.203
10 0 59890  58662.000000  0     120587.427   1050006.618  -6813830.085
10 0 59890  58782.000000  0     950089.959   1420296.314  -6680166.478
10 0 59890  58902.000000  0    1769278.210   1751562.040  -6429983.579
10 0 59890  59022.000000  0    2563217.018   2038361.728  -6067586.536
10 0 59890  59142.000000  0    3317299.249   2276269.592  -5599222.778
10 0 59890  59262.000000  0    4017511.382   2461944.557  -5032984.242
10 0 59890  59382.000000  0    4650695.217   2593178.012  -4378680.036
10 0 59890  59502.000000  0    5204800.304   2668919.133  -3647676.810
10 0 59890  59622.000000  0    5669119.789   2689276.770  -2852709.669
10 0 59890  59742.000000  0    6034506.934   2655498.218  -2007667.448
10 0 59890  59862.000000  0    6293566.203   2569924.094  -1127351.043
10 0 59890  59982.000000  0    6440811.613   2435919.731   -227212.401
10 0 59890  60102.000000  0    6472789.896   2257784.774    676922.803
10 0 59890  60222.000000  0    6388161.538   2040642.028   1569140.395
10 0 59890  60342.000000  0    6187742.935   1790311.190   2433725.397
10 0 59890  60462.000000  0    5874503.643   1513167.311   3255448.846
10 0 59890  60582.000000  0    5453519.644   1215989.108   4019843.535
10 0 59890  60702.000000  0    4931883.412    905800.974   4713463.956
10 0 59890  60822.000000  0    4318575.887    589713.551   5324123.652
10 0 59890  60942.000000  0    3624302.547    274765.314   5841109.320
10 0 59890  61062.000000  0    2861296.005    -32230.418   6255364.659
10 0 59890  61182.000000  0    2043093.695   -324828.429   6559642.105
10 0 59890  61302.000000  0    1184293.780   -597083.629   6748624.438
10 0 59890  61422.000000  0     300291.261   -843670.053   6819013.322
10 0 59890  61542.000000  0    -592999.438  -1059983.704   6769582.098
10 0 59890  61662.000000  0   -1479430.303  -1242228.318   6601195.001
10 0 59890  61782.000000  0   -2342910.314  -1387481.968   6316791.914
10 0 59890  61902.000000  0   -3167695.435  -1493743.130   5921340.415
10 0 59890  62022.000000  0   -3938677.372  -1559957.138   5421756.913
10 0 59890  62142.000000  0   -4641665.615  -1586023.048   4826791.779
10 0 59890  62262.000000  0   -5263655.470  -1572779.157   4146881.020
10 0 59890  62382.000000  0   -5793076.422  -1521967.154   3393966.098
10 0 59890  62502.000000  0   -6220015.318  -1436175.797   2581286.243
99
